{"spkid": "20451370", "covariance": {"labels": ["e", "q", "tp", "node", "peri", "i"], "elements": [{"name": "e", "sigma": 3.52881096626045e-08, "title": "eccentricity", "value": ".2306595602304568", "units": null, "label": "e"}, {"label": "q", "name": "q", "sigma": 4.1753474121947e-08, "title": "perihelion distance", "value": ".9137451527652083", "units": "au"}, {"units": "TDB", "value": "2457687.709639752615", "title": "time of perihelion passage", "name": "tp", "sigma": 2.33918186466867e-05, "label": "tp"}, {"sigma": 3.52659486128517e-05, "name": "om", "units": "deg", "value": "316.8217241471944", "title": "longitude of the ascending node", "label": "node"}, {"units": "deg", "title": "argument of perihelion", "value": "325.6504391448626", "sigma": 3.85078305581753e-05, "name": "w", "label": "peri"}, {"label": "i", "name": "i", "sigma": 5.92763270372375e-06, "title": "inclination", "value": "5.522589545043373", "units": "deg"}], "data": [["1.245250683560003E-15", "-1.47086830644856E-15", "7.100992777607598E-13", "4.220083560501767E-14", "3.848199644661839E-13", "-3.637081183878903E-14"], ["-1.47086830644856E-15", "1.743352601252095E-15", "-8.197246917177411E-13", "-5.104982214263184E-14", "-4.392417572633702E-13", "4.218373415578948E-14"], ["7.100992777607598E-13", "-8.197246917177411E-13", "5.4717717959948E-10", "-3.259241741226243E-12", "3.657232482309106E-10", "-2.926959418317286E-11"], ["4.220083560501767E-14", "-5.104982214263184E-14", "-3.259241741226243E-12", "1.243687131564294E-9", "-1.239644347371835E-9", "7.239781247901536E-11"], ["3.848199644661839E-13", "-4.392417572633702E-13", "3.657232482309106E-10", "-1.239644347371835E-9", "1.482853014297142E-9", "-9.15170584746552E-11"], ["-3.637081183878903E-14", "4.218373415578948E-14", "-2.926959418317286E-11", "7.239781247901536E-11", "-9.15170584746552E-11", "3.513682947025529E-11"]], "epoch": "2457635.5"}, "elements": [{"units": null, "value": ".2308185225605843", "title": "eccentricity", "sigma": "3.5206E-8", "name": "e", "label": "e"}, {"units": "au", "title": "semi-major axis", "value": "1.187848181194594", "sigma": "2.9122E-9", "name": "a", "label": "a"}, {"label": "q", "sigma": "4.1794E-8", "name": "q", "units": "au", "title": "perihelion distance", "value": ".9136708189849803"}, {"label": "i", "title": "inclination; angle with respect to x-y ecliptic plane", "value": "5.522839271412498", "units": "deg", "sigma": "5.9281E-6", "name": "i"}, {"label": "node", "title": "longitude of the ascending node", "value": "316.7646957821294", "units": "deg", "sigma": "3.5262E-5", "name": "om"}, {"label": "peri", "units": "deg", "title": "argument of perihelion", "value": "325.7343656383649", "sigma": "3.8498E-5", "name": "w"}, {"title": "mean anomaly", "value": "154.6479585866543", "units": "deg", "name": "ma", "sigma": "2.3905E-5", "label": "M"}, {"sigma": "3.0874E-5", "name": "tp", "value": "2460997.366513242407", "title": "time of perihelion passage", "units": "TDB", "label": "tp"}, {"label": "period", "title": "sidereal orbital period", "value": "472.8678988139197", "units": "d", "sigma": "1.7389E-6", "name": "per"}, {"sigma": "2.7997E-9", "name": "n", "value": ".7613119877728581", "title": "mean motion", "units": "deg/d", "label": "n"}, {"label": "Q", "title": "aphelion distance", "value": "1.462025543404207", "units": "au", "name": "ad", "sigma": "3.5843E-9"}], "epoch": "2461200.5"}